{"type": "FeatureCollection", "features": [ {"type": "Feature", "properties": {"norad_id": 66609, "name": "STARLINK-36034", "group": "last-30-days", "lat": 33.4664221882592, "lon": -149.28503246720462, "alt_km": 409.9820118613907, "timestamp": "2025-12-17T09:00:15.890328+00:00", "meta": {"OBJECT_NAME": "STARLINK-36034", "OBJECT_ID": "2025-270X", "EPOCH": "2025-12-16T20:24:19.698336", "MEAN_MOTION": 15.50583338, "ECCENTRICITY": 0.00018969, "INCLINATION": 42.9988, "RA_OF_ASC_NODE": 168.5989, "ARG_OF_PERICENTER": 295.3896, "MEAN_ANOMALY": 64.6767, "EPHEMERIS_TYPE": 0, "CLASSIFICATION_TYPE": "U", "NORAD_CAT_ID": 66609, "ELEMENT_SET_NO": 999, "REV_AT_EPOCH": 482, "BSTAR": 0.001403954, "MEAN_MOTION_DOT": 0.00082913, "MEAN_MOTION_DDOT": 0}, "tle": {"line1": "1 66609U 25270X   25350.85022799  .00082913  00000+0  14040-2 0  9993", "line2": "2 66609  42.9988 168.5989 0001896 295.3896  64.6767 15.50583338  4822"}}, "geometry": {"type": "Point", "coordinates": [-149.28503246720462, 33.4664221882592]}}, {"type": "Feature", "properties": {"norad_id": 66610, "name": "STARLINK-35680", "group": "last-30-days", "lat": 34.34921908067528, "lon": -147.3022666380523, "alt_km": 410.3365716009657, "timestamp": "2025-12-17T09:00:15.890338+00:00", "meta": {"OBJECT_NAME": "STARLINK-35680", "OBJECT_ID": "2025-270Y", "EPOCH": "2025-12-16T21:56:35.329920", "MEAN_MOTION": 15.50582996, "ECCENTRICITY": 0.00015804, "INCLINATION": 42.9984, "RA_OF_ASC_NODE": 168.2191, "ARG_OF_PERICENTER": 265.3367, "MEAN_ANOMALY": 94.7313, "EPHEMERIS_TYPE": 0, "CLASSIFICATION_TYPE": "U", "NORAD_CAT_ID": 66610, "ELEMENT_SET_NO": 999, "REV_AT_EPOCH": 510, "BSTAR": 0.00071160644, "MEAN_MOTION_DOT": 0.00041633, "MEAN_MOTION_DDOT": 0}, "tle": {"line1": "1 66610U 25270Y   25350.91429780  .00041633  00000+0  71161-3 0  9995", "line2": "2 66610  42.9984 168.2191 0001580 265.3367  94.7313 15.50582996  5104"}}, "geometry": {"type": "Point", "coordinates": [-147.3022666380523, 34.34921908067528]}}, {"type": "Feature", "properties": {"norad_id": 66611, "name": "STARLINK-35583", "group": "last-30-days", "lat": 35.223155739486295, "lon": -145.22062901809068, "alt_km": 410.3182864800383, "timestamp": "2025-12-17T09:00:15.890348+00:00", "meta": {"OBJECT_NAME": "STARLINK-35583", "OBJECT_ID": "2025-270Z", "EPOCH": "2025-12-16T21:56:05.680896", "MEAN_MOTION": 15.50584116, "ECCENTRICITY": 0.00017079, "INCLINATION": 42.9987, "RA_OF_ASC_NODE": 168.2163, "ARG_OF_PERICENTER": 260.5009, "MEAN_ANOMALY": 99.5659, "EPHEMERIS_TYPE": 0, "CLASSIFICATION_TYPE": "U", "NORAD_CAT_ID": 66611, "ELEMENT_SET_NO": 999, "REV_AT_EPOCH": 510, "BSTAR": 0.00079760834, "MEAN_MOTION_DOT": 0.00046739, "MEAN_MOTION_DDOT": 0}, "tle": {"line1": "1 66611U 25270Z   25350.91395464  .00046739  00000+0  79761-3 0  9993", "line2": "2 66611  42.9987 168.2163 0001707 260.5009  99.5659 15.50584116  5100"}}, "geometry": {"type": "Point", "coordinates": [-145.22062901809068, 35.223155739486295]}}, {"type": "Feature", "properties": {"norad_id": 66612, "name": "STARLINK-36039", "group": "last-30-days", "lat": -41.310525098054164, "lon": 56.49856262042945, "alt_km": 446.1755661691923, "timestamp": "2025-12-17T09:00:15.890359+00:00", "meta": {"OBJECT_NAME": "STARLINK-36039", "OBJECT_ID": "2025-270AA", "EPOCH": "2025-12-16T22:00:03.000096", "MEAN_MOTION": 15.40652165, "ECCENTRICITY": 0.00018795, "INCLINATION": 42.9993, "RA_OF_ASC_NODE": 168.5555, "ARG_OF_PERICENTER": 282.2706, "MEAN_ANOMALY": 307.2746, "EPHEMERIS_TYPE": 0, "CLASSIFICATION_TYPE": "U", "NORAD_CAT_ID": 66612, "ELEMENT_SET_NO": 999, "REV_AT_EPOCH": 507, "BSTAR": 0.0018536655, "MEAN_MOTION_DOT": 0.00077799, "MEAN_MOTION_DDOT": 0}, "tle": {"line1": "1 66612U 25270AA  25350.91670139  .00077799  00000+0  18537-2 0  9992", "line2": "2 66612  42.9993 168.5555 0001879 282.2706 307.2746 15.40652165  5072"}}, "geometry": {"type": "Point", "coordinates": [56.49856262042945, -41.310525098054164]}}, {"type": "Feature", "properties": {"norad_id": 66613, "name": "STARLINK-36037", "group": "last-30-days", "lat": -42.10992524008057, "lon": 89.91889898355532, "alt_km": 446.356324708403, "timestamp": "2025-12-17T09:00:15.890369+00:00", "meta": {"OBJECT_NAME": "STARLINK-36037", "OBJECT_ID": "2025-270AB", "EPOCH": "2025-12-16T22:00:03.000096", "MEAN_MOTION": 15.40651479, "ECCENTRICITY": 0.00014349, "INCLINATION": 42.9991, "RA_OF_ASC_NODE": 168.4953, "ARG_OF_PERICENTER": 282.9943, "MEAN_ANOMALY": 331.4299, "EPHEMERIS_TYPE": 0, "CLASSIFICATION_TYPE": "U", "NORAD_CAT_ID": 66613, "ELEMENT_SET_NO": 999, "REV_AT_EPOCH": 507, "BSTAR": 0.0018052556, "MEAN_MOTION_DOT": 0.00075736, "MEAN_MOTION_DDOT": 0}, "tle": {"line1": "1 66613U 25270AB  25350.91670139  .00075736  00000+0  18053-2 0  9995", "line2": "2 66613  42.9991 168.4953 0001434 282.9943 331.4299 15.40651479  5078"}}, "geometry": {"type": "Point", "coordinates": [89.91889898355532, -42.10992524008057]}}, {"type": "Feature", "properties": {"norad_id": 66614, "name": "STARLINK-36040", "group": "last-30-days", "lat": 21.38300690521394, "lon": -169.57100928645875, "alt_km": 438.4741639708718, "timestamp": "2025-12-17T09:00:15.890381+00:00", "meta": {"OBJECT_NAME": "STARLINK-36040", "OBJECT_ID": "2025-270AC", "EPOCH": "2025-12-16T22:00:03.000096", "MEAN_MOTION": 15.43995156, "ECCENTRICITY": 0.00016977, "INCLINATION": 42.9988, "RA_OF_ASC_NODE": 168.232, "ARG_OF_PERICENTER": 292.8848, "MEAN_ANOMALY": 70.1787, "EPHEMERIS_TYPE": 0, "CLASSIFICATION_TYPE": "U", "NORAD_CAT_ID": 66614, "ELEMENT_SET_NO": 999, "REV_AT_EPOCH": 491, "BSTAR": -0.062402733, "MEAN_MOTION_DOT": -0.02567074, "MEAN_MOTION_DDOT": 0}, "tle": {"line1": "1 66614U 25270AC  25350.91670139 -.02567074  00000+0 -62403-1 0  9998", "line2": "2 66614  42.9988 168.2320 0001697 292.8848  70.1787 15.43995156  4913"}}, "geometry": {"type": "Point", "coordinates": [-169.57100928645875, 21.38300690521394]}}, {"type": "Feature", "properties": {"norad_id": 66615, "name": "STARLINK-35988", "group": "last-30-days", "lat": -27.379090163067033, "lon": 131.9976485766912, "alt_km": 446.0707451791968, "timestamp": "2025-12-17T09:00:15.890391+00:00", "meta": {"OBJECT_NAME": "STARLINK-35988", "OBJECT_ID": "2025-270AD", "EPOCH": "2025-12-16T22:00:03.000096", "MEAN_MOTION": 15.40643927, "ECCENTRICITY": 0.00013554, "INCLINATION": 42.9989, "RA_OF_ASC_NODE": 168.4049, "ARG_OF_PERICENTER": 254.8956, "MEAN_ANOMALY": 36.7667, "EPHEMERIS_TYPE": 0, "CLASSIFICATION_TYPE": "U", "NORAD_CAT_ID": 66615, "ELEMENT_SET_NO": 999, "REV_AT_EPOCH": 491, "BSTAR": 0.0018242884, "MEAN_MOTION_DOT": 0.00076527, "MEAN_MOTION_DDOT": 0}, "tle": {"line1": "1 66615U 25270AD  25350.91670139  .00076527  00000+0  18243-2 0  9997", "line2": "2 66615  42.9989 168.4049 0001355 254.8956  36.7667 15.40643927  4912"}}, "geometry": {"type": "Point", "coordinates": [131.9976485766912, -27.379090163067033]}}, {"type": "Feature", "properties": {"norad_id": 66616, "name": "STARLINK-35391", "group": "last-30-days", "lat": 39.117453444158805, "lon": -133.73752425942487, "alt_km": 409.4790494679246, "timestamp": "2025-12-17T09:00:15.890401+00:00", "meta": {"OBJECT_NAME": "STARLINK-35391", "OBJECT_ID": "2025-270AE", "EPOCH": "2025-12-15T22:42:15.874848", "MEAN_MOTION": 15.50586233, "ECCENTRICITY": 0.00017552, "INCLINATION": 42.9989, "RA_OF_ASC_NODE": 173.8523, "ARG_OF_PERICENTER": 256.7172, "MEAN_ANOMALY": 103.3493, "EPHEMERIS_TYPE": 0, "CLASSIFICATION_TYPE": "U", "NORAD_CAT_ID": 66616, "ELEMENT_SET_NO": 999, "REV_AT_EPOCH": 495, "BSTAR": 0.00084717563, "MEAN_MOTION_DOT": 0.00049688, "MEAN_MOTION_DDOT": 0}, "tle": {"line1": "1 66616U 25270AE  25349.94601707  .00049688  00000+0  84718-3 0  9993", "line2": "2 66616  42.9989 173.8523 0001755 256.7172 103.3493 15.50586233  4954"}}, "geometry": {"type": "Point", "coordinates": [-133.73752425942487, 39.117453444158805]}}, {"type": "Feature", "properties": {"norad_id": 66617, "name": "STARLINK-35940", "group": "last-30-days", "lat": -36.99944847594371, "lon": 130.84153211326534, "alt_km": 452.50578075228805, "timestamp": "2025-12-17T09:00:15.890414+00:00", "meta": {"OBJECT_NAME": "STARLINK-35940", "OBJECT_ID": "2025-271A", "EPOCH": "2025-12-16T22:00:03.000096", "MEAN_MOTION": 15.39587358, "ECCENTRICITY": 0.00016947, "INCLINATION": 53.1584, "RA_OF_ASC_NODE": 167.403, "ARG_OF_PERICENTER": 113.4512, "MEAN_ANOMALY": 175.2186, "EPHEMERIS_TYPE": 0, "CLASSIFICATION_TYPE": "U", "NORAD_CAT_ID": 66617, "ELEMENT_SET_NO": 999, "REV_AT_EPOCH": 491, "BSTAR": 0.0015720164, "MEAN_MOTION_DOT": 0.00062933, "MEAN_MOTION_DDOT": 0}, "tle": {"line1": "1 66617U 25271A   25350.91670139  .00062933  00000+0  15720-2 0  9993", "line2": "2 66617  53.1584 167.4030 0001694 113.4512 175.2186 15.39587358  4910"}}, "geometry": {"type": "Point", "coordinates": [130.84153211326534, -36.99944847594371]}}, {"type": "Feature", "properties": {"norad_id": 66618, "name": "STARLINK-35970", "group": "last-30-days", "lat": 53.13334713361695, "lon": -103.80905739200688, "alt_km": 411.082584041852, "timestamp": "2025-12-17T09:00:15.890424+00:00", "meta": {"OBJECT_NAME": "STARLINK-35970", "OBJECT_ID": "2025-271B", "EPOCH": "2025-12-16T21:46:38.387136", "MEAN_MOTION": 15.49290611, "ECCENTRICITY": 6.608e-05, "INCLINATION": 53.1594, "RA_OF_ASC_NODE": 167.1927, "ARG_OF_PERICENTER": 70.8386, "MEAN_ANOMALY": 289.2694, "EPHEMERIS_TYPE": 0, "CLASSIFICATION_TYPE": "U", "NORAD_CAT_ID": 66618, "ELEMENT_SET_NO": 999, "REV_AT_EPOCH": 485, "BSTAR": 0.00098442671, "MEAN_MOTION_DOT": 0.0005465, "MEAN_MOTION_DDOT": 0}, "tle": {"line1": "1 66618U 25271B   25350.90738874  .00054650  00000+0  98443-3 0  9995", "line2": "2 66618  53.1594 167.1927 0000660  70.8386 289.2694 15.49290611  4858"}}, "geometry": {"type": "Point", "coordinates": [-103.80905739200688, 53.13334713361695]}}]}